[{"OBJECT_NAME":"ONEWEB-0698","OBJECT_ID":"2024-188L","EPOCH":"2025-12-16T05:49:54.813792","MEAN_MOTION":13.11419197,"ECCENTRICITY":0.00019951,"INCLINATION":87.8853,"RA_OF_ASC_NODE":57.5175,"ARG_OF_PERICENTER":68.7695,"MEAN_ANOMALY":291.3646,"EPHEMERIS_TYPE":0,"CLASSIFICATION_TYPE":"U","NORAD_CAT_ID":61604,"ELEMENT_SET_NO":999,"REV_AT_EPOCH":6049,"BSTAR":0.0005941702,"MEAN_MOTION_DOT":2.23e-6,"MEAN_MOTION_DDOT":0},{"OBJECT_NAME":"ONEWEB-0699","OBJECT_ID":"2024-188M","EPOCH":"2025-12-16T06:18:37.335168","MEAN_MOTION":13.10373176,"ECCENTRICITY":0.00013353,"INCLINATION":87.8819,"RA_OF_ASC_NODE":72.7278,"ARG_OF_PERICENTER":81.8368,"MEAN_ANOMALY":278.2911,"EPHEMERIS_TYPE":0,"CLASSIFICATION_TYPE":"U","NORAD_CAT_ID":61605,"ELEMENT_SET_NO":999,"REV_AT_EPOCH":5935,"BSTAR":-0.0018754413,"MEAN_MOTION_DOT":-6.42e-6,"MEAN_MOTION_DDOT":0},{"OBJECT_NAME":"ONEWEB-0700","OBJECT_ID":"2024-188N","EPOCH":"2025-12-16T06:21:00.857664","MEAN_MOTION":13.1037163,"ECCENTRICITY":9.431e-5,"INCLINATION":87.8827,"RA_OF_ASC_NODE":72.6133,"ARG_OF_PERICENTER":107.5232,"MEAN_ANOMALY":252.5999,"EPHEMERIS_TYPE":0,"CLASSIFICATION_TYPE":"U","NORAD_CAT_ID":61606,"ELEMENT_SET_NO":999,"REV_AT_EPOCH":5934,"BSTAR":-0.0016945357,"MEAN_MOTION_DOT":-5.79e-6,"MEAN_MOTION_DDOT":0},{"OBJECT_NAME":"ONEWEB-0701","OBJECT_ID":"2024-188P","EPOCH":"2025-12-16T06:44:56.049792","MEAN_MOTION":13.10375684,"ECCENTRICITY":0.00012376,"INCLINATION":87.8814,"RA_OF_ASC_NODE":72.7245,"ARG_OF_PERICENTER":75.6039,"MEAN_ANOMALY":284.5225,"EPHEMERIS_TYPE":0,"CLASSIFICATION_TYPE":"U","NORAD_CAT_ID":61607,"ELEMENT_SET_NO":999,"REV_AT_EPOCH":5935,"BSTAR":-0.00016019725,"MEAN_MOTION_DOT":-4.3e-7,"MEAN_MOTION_DDOT":0},{"OBJECT_NAME":"ONEWEB-0702","OBJECT_ID":"2024-188Q","EPOCH":"2025-12-16T05:05:56.420448","MEAN_MOTION":13.11413963,"ECCENTRICITY":8.786e-5,"INCLINATION":87.8829,"RA_OF_ASC_NODE":57.4096,"ARG_OF_PERICENTER":72.3772,"MEAN_ANOMALY":287.7452,"EPHEMERIS_TYPE":0,"CLASSIFICATION_TYPE":"U","NORAD_CAT_ID":61608,"ELEMENT_SET_NO":999,"REV_AT_EPOCH":6050,"BSTAR":-0.0011014465,"MEAN_MOTION_DOT":-3.78e-6,"MEAN_MOTION_DDOT":0},{"OBJECT_NAME":"ONEWEB-0704","OBJECT_ID":"2024-188R","EPOCH":"2025-12-16T06:28:11.015616","MEAN_MOTION":13.10374676,"ECCENTRICITY":8.19e-5,"INCLINATION":87.8831,"RA_OF_ASC_NODE":72.6926,"ARG_OF_PERICENTER":85.5316,"MEAN_ANOMALY":274.5905,"EPHEMERIS_TYPE":0,"CLASSIFICATION_TYPE":"U","NORAD_CAT_ID":61609,"ELEMENT_SET_NO":999,"REV_AT_EPOCH":5933,"BSTAR":-0.0014374061,"MEAN_MOTION_DOT":-4.89e-6,"MEAN_MOTION_DDOT":0},{"OBJECT_NAME":"ONEWEB-0705","OBJECT_ID":"2024-188S","EPOCH":"2025-12-16T06:35:21.644448","MEAN_MOTION":13.10374827,"ECCENTRICITY":0.00011343,"INCLINATION":87.8819,"RA_OF_ASC_NODE":72.713,"ARG_OF_PERICENTER":147.453,"MEAN_ANOMALY":212.6667,"EPHEMERIS_TYPE":0,"CLASSIFICATION_TYPE":"U","NORAD_CAT_ID":61610,"ELEMENT_SET_NO":999,"REV_AT_EPOCH":5150,"BSTAR":-0.0013818565,"MEAN_MOTION_DOT":-4.7e-6,"MEAN_MOTION_DDOT":0},{"OBJECT_NAME":"ONEWEB-0706","OBJECT_ID":"2024-188T","EPOCH":"2025-12-16T06:13:50.610720","MEAN_MOTION":13.10372249,"ECCENTRICITY":0.00010236,"INCLINATION":87.8805,"RA_OF_ASC_NODE":72.7367,"ARG_OF_PERICENTER":106.8018,"MEAN_ANOMALY":253.3222,"EPHEMERIS_TYPE":0,"CLASSIFICATION_TYPE":"U","NORAD_CAT_ID":61611,"ELEMENT_SET_NO":999,"REV_AT_EPOCH":5942,"BSTAR":-0.001656271,"MEAN_MOTION_DOT":-5.65e-6,"MEAN_MOTION_DDOT":0},{"OBJECT_NAME":"ONEWEB-0707","OBJECT_ID":"2024-188U","EPOCH":"2025-12-16T06:23:24.566784","MEAN_MOTION":13.10373867,"ECCENTRICITY":0.00010585,"INCLINATION":87.8818,"RA_OF_ASC_NODE":72.7135,"ARG_OF_PERICENTER":102.8511,"MEAN_ANOMALY":257.2735,"EPHEMERIS_TYPE":0,"CLASSIFICATION_TYPE":"U","NORAD_CAT_ID":61612,"ELEMENT_SET_NO":999,"REV_AT_EPOCH":5936,"BSTAR":-0.0016571358,"MEAN_MOTION_DOT":-5.66e-6,"MEAN_MOTION_DDOT":0},{"OBJECT_NAME":"ONEWEB-0708","OBJECT_ID":"2024-188V","EPOCH":"2025-12-16T06:49:43.299552","MEAN_MOTION":13.10376014,"ECCENTRICITY":0.00016236,"INCLINATION":87.8814,"RA_OF_ASC_NODE":72.7444,"ARG_OF_PERICENTER":124.5477,"MEAN_ANOMALY":235.5804,"EPHEMERIS_TYPE":0,"CLASSIFICATION_TYPE":"U","NORAD_CAT_ID":61613,"ELEMENT_SET_NO":999,"REV_AT_EPOCH":5934,"BSTAR":0.00043591125,"MEAN_MOTION_DOT":1.65e-6,"MEAN_MOTION_DDOT":0}]
