ONEWEB-0698             
1 61604U 24188L   25350.24299553  .00000223  00000+0  59417-3 0  9999
2 61604  87.8853  57.5175 0001995  68.7695 291.3646 13.11419197 60490
ONEWEB-0699             
1 61605U 24188M   25350.26293212 -.00000642  00000+0 -18754-2 0  9993
2 61605  87.8819  72.7278 0001335  81.8368 278.2911 13.10373176 59354
ONEWEB-0700             
1 61606U 24188N   25350.26459326 -.00000579  00000+0 -16945-2 0  9993
2 61606  87.8827  72.6133 0000943 107.5232 252.5999 13.10371630 59346
ONEWEB-0701             
1 61607U 24188P   25350.28120428 -.00000043  00000+0 -16020-3 0  9995
2 61607  87.8814  72.7245 0001237  75.6039 284.5225 13.10375684 59356
ONEWEB-0702             
1 61608U 24188Q   25350.21245857 -.00000378  00000+0 -11014-2 0  9991
2 61608  87.8829  57.4096 0000878  72.3772 287.7452 13.11413963 60505
ONEWEB-0704             
1 61609U 24188R   25350.26957194 -.00000489  00000+0 -14374-2 0  9996
2 61609  87.8831  72.6926 0000819  85.5316 274.5905 13.10374676 59337
ONEWEB-0705             
1 61610U 24188S   25350.27455607 -.00000470  00000+0 -13819-2 0  9994
2 61610  87.8819  72.7130 0001134 147.4530 212.6667 13.10374827 51507
ONEWEB-0706             
1 61611U 24188T   25350.25961355 -.00000565  00000+0 -16563-2 0  9999
2 61611  87.8805  72.7367 0001023 106.8018 253.3222 13.10372249 59426
ONEWEB-0707             
1 61612U 24188U   25350.26625656 -.00000566  00000+0 -16571-2 0  9992
2 61612  87.8818  72.7135 0001058 102.8511 257.2735 13.10373867 59368
ONEWEB-0708             
1 61613U 24188V   25350.28452893  .00000165  00000+0  43591-3 0  9992
2 61613  87.8814  72.7444 0001623 124.5477 235.5804 13.10376014 59349
